0 COSMOS 2251 DEB
1 34873U 93036ACL 13282.16410296  .00008838  00000-0  29562-2 0  7600
2 34873 074.0193 170.9537 0053707 224.3229 290.5569 14.36684442241116
0 COSMOS 2251 DEB
1 34873U 93036ACL 13284.11323524  .00008253  00000-0  27600-2 0  7617
2 34873 074.0207 167.3682 0053592 220.3267 291.6437 14.36711191241391
0 COSMOS 2251 DEB
1 34873U 93036ACL 13286.66609815  .00006822  00000-0  22826-2 0  7625
2 34873 074.0232 162.6719 0053258 214.6815 175.9470 14.36742161241765
0 COSMOS 2251 DEB
1 34873U 93036ACL 13287.71550904  .00009362  00000-0  31270-2 0  7632
2 34873 074.0208 160.7406 0053149 212.2133 204.1010 14.36756699241919
0 COSMOS 2251 DEB
1 34873U 93036ACL 13288.08198076  .00012122  00000-0  40441-2 0  7640
2 34873 074.0203 160.0657 0053146 211.4604 299.6095 14.36764314241966
0 COSMOS 2251 DEB
1 34873U 93036ACL 13290.63537959  .00010029  00000-0  33459-2 0  7657
2 34873 074.0191 155.3672 0052961 206.0171 187.0349 14.36805977242334
0 COSMOS 2251 DEB
1 34873U 93036ACL 13292.05103517  .00008129  00000-0  27136-2 0  7668
2 34873 074.0191 152.7626 0052858 202.9265 309.7295 14.36827369242532
0 COSMOS 2251 DEB
1 34873U 93036ACL 13293.70555432  .00008889  00000-0  29651-2 0  7676
2 34873 074.0197 149.7178 0052675 199.1950 228.2327 14.36851036242776
0 COSMOS 2251 DEB
1 34873U 93036ACL 13295.04479124  .00010136  00000-0  33780-2 0  7685
2 34873 074.0206 147.2532 0052540 196.3264 315.7971 14.36868021242962
